{
  "type": "FeatureCollection",
  "features": [
    {
      "type": "Feature",
      "properties": {
        "norad_id": 38208,
        "name": "COSMOS 2251 DEB",
        "group": "cosmos-2251-debris",
        "lat": 33.075462259899545,
        "lon": -125.02795069753878,
        "alt_km": 612.7913836461239,
        "timestamp": "2025-12-19T08:58:49.735149+00:00",
        "meta_object_name": "COSMOS 2251 DEB",
        "meta_object_id": "1993-036BSY",
        "meta_epoch": "2025-12-16T00:13:39.722592",
        "meta_mean_motion": 14.84023361,
        "meta_eccentricity": 0.00017369,
        "meta_inclination": 74.0064,
        "meta_ra_of_asc_node": 72.4172,
        "meta_arg_of_pericenter": 150.2716,
        "meta_mean_anomaly": 26.1687,
        "meta_ephemeris_type": 0,
        "meta_classification_type": "U",
        "meta_norad_cat_id": 38208,
        "meta_element_set_no": 999,
        "meta_rev_at_epoch": 71207,
        "meta_bstar": 0.0016436813,
        "meta_mean_motion_dot": 0.00013687,
        "meta_mean_motion_ddot": 0,
        "tle_line1": "1 38208U 93036BSY 25350.00948753  .00013687  00000+0  16437-2 0  9990",
        "tle_line2": "2 38208  74.0064  72.4172 0001736 150.2716  26.1687 14.84023361712075"
      },
      "geometry": {
        "type": "Point",
        "coordinates": [
          -125.02795069753878,
          33.075462259899545
        ]
      }
    },
    {
      "type": "Feature",
      "properties": {
        "norad_id": 38212,
        "name": "COSMOS 2251 DEB",
        "group": "cosmos-2251-debris",
        "lat": -51.89512674558253,
        "lon": 42.207290590465526,
        "alt_km": 707.7183767226361,
        "timestamp": "2025-12-19T08:58:49.735159+00:00",
        "meta_object_name": "COSMOS 2251 DEB",
        "meta_object_id": "1993-036BTC",
        "meta_epoch": "2025-12-16T22:44:21.570432",
        "meta_mean_motion": 14.77712349,
        "meta_eccentricity": 0.00922486,
        "meta_inclination": 74.0525,
        "meta_ra_of_asc_node": 68.3479,
        "meta_arg_of_pericenter": 134.0711,
        "meta_mean_anomaly": 226.8108,
        "meta_ephemeris_type": 0,
        "meta_classification_type": "U",
        "meta_norad_cat_id": 38212,
        "meta_element_set_no": 999,
        "meta_rev_at_epoch": 81372,
        "meta_bstar": 0.00029648241,
        "meta_mean_motion_dot": 2.245e-05,
        "meta_mean_motion_ddot": 0,
        "tle_line1": "1 38212U 93036BTC 25350.94747188  .00002245  00000+0  29648-3 0  9994",
        "tle_line2": "2 38212  74.0525  68.3479 0092248 134.0711 226.8108 14.77712349813723"
      },
      "geometry": {
        "type": "Point",
        "coordinates": [
          42.207290590465526,
          -51.89512674558253
        ]
      }
    },
    {
      "type": "Feature",
      "properties": {
        "norad_id": 38220,
        "name": "COSMOS 2251 DEB",
        "group": "cosmos-2251-debris",
        "lat": 70.09078390343815,
        "lon": -177.38152305920383,
        "alt_km": 579.6133829536739,
        "timestamp": "2025-12-19T08:58:49.735169+00:00",
        "meta_object_name": "COSMOS 2251 DEB",
        "meta_object_id": "1993-036BTL",
        "meta_epoch": "2025-12-17T11:30:14.878368",
        "meta_mean_motion": 14.9320096,
        "meta_eccentricity": 0.00051577,
        "meta_inclination": 74.0158,
        "meta_ra_of_asc_node": 58.7526,
        "meta_arg_of_pericenter": 31.4503,
        "meta_mean_anomaly": 328.6988,
        "meta_ephemeris_type": 0,
        "meta_classification_type": "U",
        "meta_norad_cat_id": 38220,
        "meta_element_set_no": 999,
        "meta_rev_at_epoch": 71441,
        "meta_bstar": 0.0021815417,
        "meta_mean_motion_dot": 0.00022841,
        "meta_mean_motion_ddot": 0,
        "tle_line1": "1 38220U 93036BTL 25351.47933887  .00022841  00000+0  21815-2 0  9996",
        "tle_line2": "2 38220  74.0158  58.7526 0005157  31.4503 328.6988 14.93200960714414"
      },
      "geometry": {
        "type": "Point",
        "coordinates": [
          -177.38152305920383,
          70.09078390343815
        ]
      }
    },
    {
      "type": "Feature",
      "properties": {
        "norad_id": 38479,
        "name": "COSMOS 2251 DEB",
        "group": "cosmos-2251-debris",
        "lat": 4.5332857340735,
        "lon": 173.33916957111333,
        "alt_km": 760.4126335388246,
        "timestamp": "2025-12-19T08:58:49.735179+00:00",
        "meta_object_name": "COSMOS 2251 DEB",
        "meta_object_id": "1993-036BTP",
        "meta_epoch": "2025-12-13T19:29:32.997408",
        "meta_mean_motion": 14.3831318,
        "meta_eccentricity": 0.0084157,
        "meta_inclination": 74.007,
        "meta_ra_of_asc_node": 182.3013,
        "meta_arg_of_pericenter": 291.0961,
        "meta_mean_anomaly": 83.9532,
        "meta_ephemeris_type": 0,
        "meta_classification_type": "U",
        "meta_norad_cat_id": 38479,
        "meta_element_set_no": 999,
        "meta_rev_at_epoch": 64703,
        "meta_bstar": 0.0021939338,
        "meta_mean_motion_dot": 6.938e-05,
        "meta_mean_motion_ddot": 0,
        "tle_line1": "1 38479U 93036BTP 25347.81218747  .00006938  00000+0  21939-2 0  9992",
        "tle_line2": "2 38479  74.0070 182.3013 0084157 291.0961  83.9532 14.38313180647034"
      },
      "geometry": {
        "type": "Point",
        "coordinates": [
          173.33916957111333,
          4.5332857340735
        ]
      }
    },
    {
      "type": "Feature",
      "properties": {
        "norad_id": 38481,
        "name": "COSMOS 2251 DEB",
        "group": "cosmos-2251-debris",
        "lat": -46.87803461255074,
        "lon": -21.832531729326604,
        "alt_km": 752.8515025696397,
        "timestamp": "2025-12-19T08:58:49.735189+00:00",
        "meta_object_name": "COSMOS 2251 DEB",
        "meta_object_id": "1993-036BTR",
        "meta_epoch": "2025-12-17T17:37:11.726400",
        "meta_mean_motion": 13.94852214,
        "meta_eccentricity": 0.02348213,
        "meta_inclination": 73.9324,
        "meta_ra_of_asc_node": 358.9239,
        "meta_arg_of_pericenter": 298.2644,
        "meta_mean_anomaly": 59.4964,
        "meta_ephemeris_type": 0,
        "meta_classification_type": "U",
        "meta_norad_cat_id": 38481,
        "meta_element_set_no": 999,
        "meta_rev_at_epoch": 59130,
        "meta_bstar": 0.0012605173,
        "meta_mean_motion_dot": 2.103e-05,
        "meta_mean_motion_ddot": 0,
        "tle_line1": "1 38481U 93036BTR 25351.73416350  .00002103  00000+0  12605-2 0  9991",
        "tle_line2": "2 38481  73.9324 358.9239 0234821 298.2644  59.4964 13.94852214591302"
      },
      "geometry": {
        "type": "Point",
        "coordinates": [
          -21.832531729326604,
          -46.87803461255074
        ]
      }
    },
    {
      "type": "Feature",
      "properties": {
        "norad_id": 38483,
        "name": "COSMOS 2251 DEB",
        "group": "cosmos-2251-debris",
        "lat": 34.80969962292776,
        "lon": 168.5698890079605,
        "alt_km": 731.9053724672731,
        "timestamp": "2025-12-19T08:58:49.735200+00:00",
        "meta_object_name": "COSMOS 2251 DEB",
        "meta_object_id": "1993-036BTT",
        "meta_epoch": "2025-12-12T08:16:48.530496",
        "meta_mean_motion": 14.28787654,
        "meta_eccentricity": 0.01107994,
        "meta_inclination": 74.262,
        "meta_ra_of_asc_node": 12.4521,
        "meta_arg_of_pericenter": 118.0167,
        "meta_mean_anomaly": 243.2246,
        "meta_ephemeris_type": 0,
        "meta_classification_type": "U",
        "meta_norad_cat_id": 38483,
        "meta_element_set_no": 999,
        "meta_rev_at_epoch": 63472,
        "meta_bstar": 0.0012977102,
        "meta_mean_motion_dot": 3.471e-05,
        "meta_mean_motion_ddot": 0,
        "tle_line1": "1 38483U 93036BTT 25346.34500614  .00003471  00000+0  12977-2 0  9992",
        "tle_line2": "2 38483  74.2620  12.4521 0110799 118.0167 243.2246 14.28787654634722"
      },
      "geometry": {
        "type": "Point",
        "coordinates": [
          168.5698890079605,
          34.80969962292776
        ]
      }
    },
    {
      "type": "Feature",
      "properties": {
        "norad_id": 38486,
        "name": "COSMOS 2251 DEB",
        "group": "cosmos-2251-debris",
        "lat": 66.88422964265587,
        "lon": -30.585527966013135,
        "alt_km": 657.5019382929122,
        "timestamp": "2025-12-19T08:58:49.735210+00:00",
        "meta_object_name": "COSMOS 2251 DEB",
        "meta_object_id": "1993-036BTW",
        "meta_epoch": "2025-12-16T20:16:12.499104",
        "meta_mean_motion": 14.73366046,
        "meta_eccentricity": 0.00303976,
        "meta_inclination": 73.9413,
        "meta_ra_of_asc_node": 196.8105,
        "meta_arg_of_pericenter": 340.5168,
        "meta_mean_anomaly": 34.0397,
        "meta_ephemeris_type": 0,
        "meta_classification_type": "U",
        "meta_norad_cat_id": 38486,
        "meta_element_set_no": 999,
        "meta_rev_at_epoch": 75495,
        "meta_bstar": 0.0017008864,
        "meta_mean_motion_dot": 0.00011084,
        "meta_mean_motion_ddot": 0,
        "tle_line1": "1 38486U 93036BTW 25350.84458911  .00011084  00000+0  17009-2 0  9997",
        "tle_line2": "2 38486  73.9413 196.8105 0030397 340.5168  34.0397 14.73366046754953"
      },
      "geometry": {
        "type": "Point",
        "coordinates": [
          -30.585527966013135,
          66.88422964265587
        ]
      }
    }
  ]
}